HAWK-5A                 
1 52757U 22057AB  26186.42265809  .00027082  00000+0  44963-3 0  9998
2 52757  97.6629 346.4586 0004251  15.3287 344.8093 15.52075855229176
HAWK-6B                 
1 55324U 23011A   26186.54345826  .00005864  00000+0  25146-3 0  9999
2 55324  40.4973 244.9952 0002680 186.8926 173.1847 15.23097731190648
HAWK-6C                 
1 55326U 23011C   26186.34612997  .00006946  00000+0  29629-3 0  9997
2 55326  40.4959 242.9826 0002970 169.3482 190.7391 15.23096524190623
HAWK-6A                 
1 55327U 23011D   26186.34616440  .00006947  00000+0  29635-3 0  9993
2 55327  40.4971 244.6088 0002531 168.0004 192.0866 15.23097691190624
HAWK-7A                 
1 56191U 23054P   26186.25687638  .00008543  00000+0  31957-3 0  9991
2 56191  97.2677  73.1345 0002593  13.0634 347.0672 15.27558118179785
HAWK-7B                 
1 56193U 23054R   26186.25680593  .00009383  00000+0  35063-3 0  9991
2 56193  97.2702  71.4049 0002400  34.8414 325.2983 15.27562044179788
HAWK-7C                 
1 56200U 23054Y   26186.25669231  .00009003  00000+0  33657-3 0  9992
2 56200  97.2677  72.1677 0002107  23.5693 336.5643 15.27560194179783
