OBJECT_NAME,OBJECT_ID,EPOCH,MEAN_MOTION,ECCENTRICITY,INCLINATION,RA_OF_ASC_NODE,ARG_OF_PERICENTER,MEAN_ANOMALY,EPHEMERIS_TYPE,CLASSIFICATION_TYPE,NORAD_CAT_ID,ELEMENT_SET_NO,REV_AT_EPOCH,BSTAR,MEAN_MOTION_DOT,MEAN_MOTION_DDOT
HAWK-5A,2022-057AB,2026-07-05T10:08:37.658976,15.52075855,.00042511,97.6629,346.4586,15.3287,344.8093,0,U,52757,999,22917,.44962798E-3,.27082E-3,0
HAWK-6B,2023-011A,2026-07-05T13:02:34.793664,15.23097731,.00026803,40.4973,244.9952,186.8926,173.1847,0,U,55324,999,19064,.25146389E-3,.5864E-4,0
HAWK-6C,2023-011C,2026-07-05T08:18:25.629408,15.23096524,.00029705,40.4959,242.9826,169.3482,190.7391,0,U,55326,999,19062,.29629031E-3,.6946E-4,0
HAWK-6A,2023-011D,2026-07-05T08:18:28.604160,15.23097691,.00025314,40.4971,244.6088,168.0004,192.0866,0,U,55327,999,19062,.29634564E-3,.6947E-4,0
HAWK-7A,2023-054P,2026-07-05T06:09:54.119232,15.27558118,.00025931,97.2677,73.1345,13.0634,347.0672,0,U,56191,999,17978,.31956975E-3,.8543E-4,0
HAWK-7B,2023-054R,2026-07-05T06:09:48.032352,15.27562044,.00024007,97.2702,71.4049,34.8414,325.2983,0,U,56193,999,17978,.35062825E-3,.9383E-4,0
HAWK-7C,2023-054Y,2026-07-05T06:09:38.215584,15.27560194,.00021072,97.2677,72.1677,23.5693,336.5643,0,U,56200,999,17978,.33657022E-3,.9003E-4,0
